[{"OBJECT_NAME":"ONEWEB-0238","OBJECT_ID":"2021-045T","EPOCH":"2026-03-09T14:27:50.964480","MEAN_MOTION":13.15547356,"ECCENTRICITY":0.000193,"INCLINATION":87.8938,"RA_OF_ASC_NODE":279.0532,"ARG_OF_PERICENTER":79.3293,"MEAN_ANOMALY":280.8055,"EPHEMERIS_TYPE":0,"CLASSIFICATION_TYPE":"U","NORAD_CAT_ID":48784,"ELEMENT_SET_NO":999,"REV_AT_EPOCH":23128,"BSTAR":-7.5189e-5,"MEAN_MOTION_DOT":-1.5e-7,"MEAN_MOTION_DDOT":0},{"OBJECT_NAME":"FENGYUN 1C DEB","OBJECT_ID":"1999-025AJQ","EPOCH":"2026-03-09T11:05:29.022144","MEAN_MOTION":13.50021337,"ECCENTRICITY":0.03042863,"INCLINATION":99.5368,"RA_OF_ASC_NODE":152.2216,"ARG_OF_PERICENTER":48.4008,"MEAN_ANOMALY":314.2779,"EPHEMERIS_TYPE":0,"CLASSIFICATION_TYPE":"U","NORAD_CAT_ID":30526,"ELEMENT_SET_NO":999,"REV_AT_EPOCH":93828,"BSTAR":0.0002756743,"MEAN_MOTION_DOT":1.93e-6,"MEAN_MOTION_DDOT":0}]
